start=new Date('2023-01-16T00:00:00.000Z').valueOf();
sats=[{"REF_FRAME":"TEME","SEMIMAJOR_AXIS":"6917.890","COUNTRY_CODE":"US","PERIOD":"95.438","MEAN_MOTION":"15.08836992","ELEMENT_SET_NO":"999","ECCENTRICITY":"0.00023110","MEAN_MOTION_DDOT":"0.0000000000000","OBJECT_TYPE":"PAYLOAD","LAUNCH_DATE":"2022-01-19","OBJECT_NAME":"STARLINK-3400","DECAY_DATE":null,"MEAN_MOTION_DOT":"0.00002356","ARG_OF_PERICENTER":"40.3493","TLE_LINE2":"2 51128  53.2149  56.6882 0002311  40.3493 319.7670 15.08836992 55282","CLASSIFICATION_TYPE":"U","EPHEMERIS_TYPE":"0","BSTAR":"0.00016610000000","CENTER_NAME":"EARTH","MEAN_ELEMENT_THEORY":"SGP4","TLE_LINE1":"1 51128U 22005AA  23015.80088291  .00002356  00000-0  16610-3 0  9996","RA_OF_ASC_NODE":"56.6882","SITE":"AFETR","REV_AT_EPOCH":"5528","NORAD_CAT_ID":"51128","MEAN_ANOMALY":"319.7670","RCS_SIZE":"LARGE","APOAPSIS":"541.353","EPOCH":"2023-01-15T19:13:16.283424","OBJECT_ID":"2022-005AA","FILE":"3748322","GP_ID":"223148622","TIME_SYSTEM":"UTC","PERIAPSIS":"538.156","INCLINATION":"53.2149"},{"REF_FRAME":"TEME","COUNTRY_CODE":"US","PERIOD":"95.438","SEMIMAJOR_AXIS":"6917.891","ELEMENT_SET_NO":"999","MEAN_MOTION":"15.08836529","ECCENTRICITY":"0.00037880","OBJECT_TYPE":"PAYLOAD","MEAN_MOTION_DDOT":"0.0000000000000","LAUNCH_DATE":"2022-01-19","OBJECT_NAME":"STARLINK-3396","ARG_OF_PERICENTER":"63.0628","MEAN_MOTION_DOT":"0.00015118","DECAY_DATE":null,"TLE_LINE2":"2 51129  53.2154  56.5660 0003788  63.0628 297.0750 15.08836529 55297","EPHEMERIS_TYPE":"0","CLASSIFICATION_TYPE":"U","BSTAR":"0.00096594000000","SITE":"AFETR","TLE_LINE1":"1 51129U 22005AB  23015.82761136  .00015118  00000-0  96594-3 0  9994","RA_OF_ASC_NODE":"56.5660","CENTER_NAME":"EARTH","MEAN_ELEMENT_THEORY":"SGP4","NORAD_CAT_ID":"51129","MEAN_ANOMALY":"297.0750","REV_AT_EPOCH":"5529","RCS_SIZE":"LARGE","APOAPSIS":"542.376","EPOCH":"2023-01-15T19:51:45.621504","OBJECT_ID":"2022-005AB","FILE":"3748322","TIME_SYSTEM":"UTC","GP_ID":"223148872","PERIAPSIS":"537.136","INCLINATION":"53.2154"},{"RCS_SIZE":"LARGE","REV_AT_EPOCH":"5528","NORAD_CAT_ID":"51130","MEAN_ANOMALY":"306.6296","CENTER_NAME":"EARTH","MEAN_ELEMENT_THEORY":"SGP4","RA_OF_ASC_NODE":"56.6428","TLE_LINE1":"1 51130U 22005AC  23015.81192392  .00010705  00000-0  68961-3 0  9991","SITE":"AFETR","BSTAR":"0.00068961000000","PERIAPSIS":"538.301","INCLINATION":"53.2164","GP_ID":"223150122","TIME_SYSTEM":"UTC","FILE":"3748322","EPOCH":"2023-01-15T19:29:10.226688","APOAPSIS":"541.176","OBJECT_ID":"2022-005AC","ECCENTRICITY":"0.00020780","MEAN_MOTION_DDOT":"0.0000000000000","OBJECT_TYPE":"PAYLOAD","MEAN_MOTION":"15.08842399","ELEMENT_SET_NO":"999","COUNTRY_CODE":"US","SEMIMAJOR_AXIS":"6917.873","PERIOD":"95.437","REF_FRAME":"TEME","CLASSIFICATION_TYPE":"U","EPHEMERIS_TYPE":"0","TLE_LINE2":"2 51130  53.2164  56.6428 0002078  53.4888 306.6296 15.08842399 55288","DECAY_DATE":null,"ARG_OF_PERICENTER":"53.4888","MEAN_MOTION_DOT":"0.00010705","LAUNCH_DATE":"2022-01-19","OBJECT_NAME":"STARLINK-3395"},{"GP_ID":"223150371","TIME_SYSTEM":"UTC","PERIAPSIS":"538.274","INCLINATION":"53.2150","EPOCH":"2023-01-15T19:18:34.182720","APOAPSIS":"541.213","OBJECT_ID":"2022-005AD","FILE":"3748322","REV_AT_EPOCH":"5528","NORAD_CAT_ID":"51131","MEAN_ANOMALY":"314.4444","RCS_SIZE":"LARGE","BSTAR":"0.00003093900000","CENTER_NAME":"EARTH","MEAN_ELEMENT_THEORY":"SGP4","TLE_LINE1":"1 51131U 22005AD  23015.80456230  .00000204  00000-0  30939-4 0  9993","SITE":"AFETR","RA_OF_ASC_NODE":"56.6776","TLE_LINE2":"2 51131  53.2150  56.6776 0002124  45.6722 314.4444 15.08840691 55287","CLASSIFICATION_TYPE":"U","EPHEMERIS_TYPE":"0","LAUNCH_DATE":"2022-01-19","OBJECT_NAME":"STARLINK-3388","DECAY_DATE":null,"MEAN_MOTION_DOT":"0.00000204","ARG_OF_PERICENTER":"45.6722","MEAN_MOTION":"15.08840691","ELEMENT_SET_NO":"999","ECCENTRICITY":"0.00021240","MEAN_MOTION_DDOT":"0.0000000000000","OBJECT_TYPE":"PAYLOAD","REF_FRAME":"TEME","SEMIMAJOR_AXIS":"6917.878","COUNTRY_CODE":"US","PERIOD":"95.438"},{"CLASSIFICATION_TYPE":"U","EPHEMERIS_TYPE":"0","TLE_LINE2":"2 51132  53.2155  56.6620 0001759  47.5988 312.5152 15.08848318 55288","DECAY_DATE":null,"ARG_OF_PERICENTER":"47.5988","MEAN_MOTION_DOT":"0.00012128","OBJECT_NAME":"STARLINK-3393","LAUNCH_DATE":"2022-01-19","OBJECT_TYPE":"PAYLOAD","MEAN_MOTION_DDOT":"0.0000000000000","ECCENTRICITY":"0.00017590","MEAN_MOTION":"15.08848318","ELEMENT_SET_NO":"999","COUNTRY_CODE":"US","PERIOD":"95.437","SEMIMAJOR_AXIS":"6917.855","REF_FRAME":"TEME","INCLINATION":"53.2155","PERIAPSIS":"538.503","GP_ID":"223149122","TIME_SYSTEM":"UTC","FILE":"3748322","APOAPSIS":"540.937","OBJECT_ID":"2022-005AE","EPOCH":"2023-01-15T19:23:52.291104","RCS_SIZE":"LARGE","REV_AT_EPOCH":"5528","MEAN_ANOMALY":"312.5152","NORAD_CAT_ID":"51132","MEAN_ELEMENT_THEORY":"SGP4","CENTER_NAME":"EARTH","TLE_LINE1":"1 51132U 22005AE  23015.80824411  .00012128  00000-0  77858-3 0  9992","RA_OF_ASC_NODE":"56.6620","SITE":"AFETR","BSTAR":"0.00077858000000"},{"OBJECT_NAME":"STARLINK-3356","LAUNCH_DATE":"2022-01-19","MEAN_MOTION_DOT":"0.00002759","ARG_OF_PERICENTER":"38.9344","DECAY_DATE":null,"TLE_LINE2":"2 51133  53.2159  56.7061 0002749  38.9344 321.1846 15.08827393 55289","EPHEMERIS_TYPE":"0","CLASSIFICATION_TYPE":"U","REF_FRAME":"TEME","SEMIMAJOR_AXIS":"6917.919","COUNTRY_CODE":"US","PERIOD":"95.438","ELEMENT_SET_NO":"999","MEAN_MOTION":"15.08827393","OBJECT_TYPE":"PAYLOAD","MEAN_MOTION_DDOT":"0.0000000000000","ECCENTRICITY":"0.00027490","APOAPSIS":"541.686","EPOCH":"2023-01-15T19:07:58.490400","OBJECT_ID":"2022-005AF","FILE":"3748322","TIME_SYSTEM":"UTC","GP_ID":"223149371","INCLINATION":"53.2159","PERIAPSIS":"537.882","BSTAR":"0.00019147000000","TLE_LINE1":"1 51133U 22005AF  23015.79720475  .00002759  00000-0  19147-3 0  9992","RA_OF_ASC_NODE":"56.7061","SITE":"AFETR","MEAN_ELEMENT_THEORY":"SGP4","CENTER_NAME":"EARTH","MEAN_ANOMALY":"321.1846","NORAD_CAT_ID":"51133","REV_AT_EPOCH":"5528","RCS_SIZE":"LARGE"},{"REF_FRAME":"TEME","SEMIMAJOR_AXIS":"6917.953","COUNTRY_CODE":"US","PERIOD":"95.439","MEAN_MOTION":"15.08816112","ELEMENT_SET_NO":"999","MEAN_MOTION_DDOT":"0.0000000000000","OBJECT_TYPE":"PAYLOAD","ECCENTRICITY":"0.00029690","OBJECT_NAME":"STARLINK-3180","LAUNCH_DATE":"2022-01-19","DECAY_DATE":null,"MEAN_MOTION_DOT":"-0.00000063","ARG_OF_PERICENTER":"36.0090","TLE_LINE2":"2 51137  53.2158 130.5289 0002969  36.0090 324.1101 15.08816112 53929","CLASSIFICATION_TYPE":"U","EPHEMERIS_TYPE":"0","BSTAR":"0.00001417700000","MEAN_ELEMENT_THEORY":"SGP4","CENTER_NAME":"EARTH","TLE_LINE1":"1 51137U 22005AK  22364.35494811 -.00000063  00000-0  14177-4 0  9992","SITE":"AFETR","RA_OF_ASC_NODE":"130.5289","REV_AT_EPOCH":"5392","MEAN_ANOMALY":"324.1101","NORAD_CAT_ID":"51137","RCS_SIZE":"MEDIUM","OBJECT_ID":"2022-005AK","APOAPSIS":"541.872","EPOCH":"2022-12-30T08:31:07.516704","FILE":"3747880","GP_ID":"223117878","TIME_SYSTEM":"UTC","INCLINATION":"53.2158","PERIAPSIS":"537.764"},{"OBJECT_NAME":"STARLINK-3177","LAUNCH_DATE":"2022-01-19","DECAY_DATE":null,"MEAN_MOTION_DOT":"0.00005649","ARG_OF_PERICENTER":"32.3216","TLE_LINE2":"2 51138  53.2158  58.5251 0002903  32.3216 327.7953 15.08834078 56349","CLASSIFICATION_TYPE":"U","EPHEMERIS_TYPE":"0","REF_FRAME":"TEME","COUNTRY_CODE":"US","PERIOD":"95.438","SEMIMAJOR_AXIS":"6917.898","MEAN_MOTION":"15.08834078","ELEMENT_SET_NO":"999","OBJECT_TYPE":"PAYLOAD","MEAN_MOTION_DDOT":"0.0000000000000","ECCENTRICITY":"0.00029030","APOAPSIS":"541.772","OBJECT_ID":"2022-005AL","EPOCH":"2023-01-15T09:25:04.221408","FILE":"3747800","GP_ID":"223116181","TIME_SYSTEM":"UTC","INCLINATION":"53.2158","PERIAPSIS":"537.755","BSTAR":"0.00037283000000","MEAN_ELEMENT_THEORY":"SGP4","CENTER_NAME":"EARTH","SITE":"AFETR","TLE_LINE1":"1 51138U 22005AL  23015.39240997  .00005649  00000-0  37283-3 0  9991","RA_OF_ASC_NODE":"58.5251","REV_AT_EPOCH":"5634","MEAN_ANOMALY":"327.7953","NORAD_CAT_ID":"51138","RCS_SIZE":"LARGE"},{"RCS_SIZE":"LARGE","REV_AT_EPOCH":"5530","NORAD_CAT_ID":"51139","MEAN_ANOMALY":"302.3564","CENTER_NAME":"EARTH","MEAN_ELEMENT_THEORY":"SGP4","RA_OF_ASC_NODE":"56.5115","TLE_LINE1":"1 51139U 22005AM  23015.84136719  .00015998  00000-0  10207-2 0  9992","SITE":"AFETR","BSTAR":"0.00102070000000","PERIAPSIS":"537.870","INCLINATION":"53.2147","GP_ID":"223150372","TIME_SYSTEM":"UTC","FILE":"3748322","APOAPSIS":"541.567","OBJECT_ID":"2022-005AM","EPOCH":"2023-01-15T20:11:34.125216","ECCENTRICITY":"0.00026720","MEAN_MOTION_DDOT":"0.0000000000000","OBJECT_TYPE":"PAYLOAD","MEAN_MOTION":"15.08848668","ELEMENT_SET_NO":"999","SEMIMAJOR_AXIS":"6917.854","COUNTRY_CODE":"US","PERIOD":"95.437","REF_FRAME":"TEME","CLASSIFICATION_TYPE":"U","EPHEMERIS_TYPE":"0","TLE_LINE2":"2 51139  53.2147  56.5115 0002672  57.7687 302.3564 15.08848668 55303","DECAY_DATE":null,"MEAN_MOTION_DOT":"0.00015998","ARG_OF_PERICENTER":"57.7687","LAUNCH_DATE":"2022-01-19","OBJECT_NAME":"STARLINK-3172"},{"COUNTRY_CODE":"US","SEMIMAJOR_AXIS":"6917.861","PERIOD":"95.437","REF_FRAME":"TEME","ECCENTRICITY":"0.00019470","MEAN_MOTION_DDOT":"0.0000000000000","OBJECT_TYPE":"PAYLOAD","ELEMENT_SET_NO":"999","MEAN_MOTION":"15.08846338","ARG_OF_PERICENTER":"96.5567","MEAN_MOTION_DOT":"0.00007414","DECAY_DATE":null,"LAUNCH_DATE":"2022-01-19","OBJECT_NAME":"STARLINK-3179","EPHEMERIS_TYPE":"0","CLASSIFICATION_TYPE":"U","TLE_LINE2":"2 51141  53.2144  56.5402 0001947  96.5567 263.5647 15.08846338 55306","RA_OF_ASC_NODE":"56.5402","TLE_LINE1":"1 51141U 22005AP  23015.83400638  .00007414  00000-0  48335-3 0  9996","SITE":"AFETR","CENTER_NAME":"EARTH","MEAN_ELEMENT_THEORY":"SGP4","BSTAR":"0.00048335000000","RCS_SIZE":"LARGE","NORAD_CAT_ID":"51141","MEAN_ANOMALY":"263.5647","REV_AT_EPOCH":"5530","FILE":"3748322","APOAPSIS":"541.073","OBJECT_ID":"2022-005AP","EPOCH":"2023-01-15T20:00:58.151232","PERIAPSIS":"538.379","INCLINATION":"53.2144","TIME_SYSTEM":"UTC","GP_ID":"223149372"}];
